ONEWEB-0176             
1 48210U 21031A   26192.68891817 -.00000036  00000+0 -13105-3 0  9993
2 48210  87.8967 284.8176 0002156 101.4223 258.7149 13.14501965251532
ONEWEB-0184             
1 48211U 21031B   26192.81419420 -.00000104  00000+0 -31434-3 0  9996
2 48211  87.8976 284.7946 0002465 118.4801 241.6577 13.14502752251520
ONEWEB-0179             
1 48212U 21031C   26192.80358207  .00000191  00000+0  55757-4 0  9990
2 48212  87.8996 281.0478 0221386 176.4996 183.7812 14.25571598252556
ONEWEB-0180             
1 48213U 21031D   26192.74125217 -.00000123  00000+0 -36730-3 0  9993
2 48213  87.8979 284.8057 0002496  99.5822 260.5590 13.14503309251440
ONEWEB-0218             
1 48214U 21031E   26192.76345048 -.00000050  00000+0 -17048-3 0  9992
2 48214  87.8977 284.8011 0002800 112.5448 247.5978 13.14503442251609
ONEWEB-0209             
1 48215U 21031F   26192.75235609 -.00000172  00000+0 -49881-3 0  9998
2 48215  87.8968 284.8177 0002275  96.5306 263.6083 13.14503466251605
ONEWEB-0198             
1 48216U 21031G   26192.81275065 -.00000112  00000+0 -33784-3 0  9995
2 48216  87.8961 284.8027 0002500 101.1601 258.9810 13.14502934251722
ONEWEB-0189             
1 48217U 21031H   26192.74917884 -.00000237  00000+0 -67411-3 0  9992
2 48217  87.8972 284.8047 0002403 101.9100 258.2299 13.14502069251454
ONEWEB-0196             
1 48218U 21031J   26192.80309674  .00000008  00000+0 -13266-4 0  9997
2 48218  87.8972 284.8024 0002126  99.2157 260.9213 13.14502362251466
ONEWEB-0183             
1 48219U 21031K   26192.77772282  .00000185  00000+0  46358-3 0  9995
2 48219  87.8968 284.8053 0002008  93.2374 266.8986 13.14502010251550
ONEWEB-0185             
1 48220U 21031L   26192.80387563 -.00000019  00000+0 -85027-4 0  9990
2 48220  87.8976 284.7954 0002278  89.4532 270.6859 13.14503384251481
ONEWEB-0187             
1 48221U 21031M   26192.78392547  .00000189  00000+0  47448-3 0  9996
2 48221  87.8966 284.8142 0002138 101.7933 258.3437 13.14502652251492
ONEWEB-0192             
1 48222U 21031N   26192.75393731 -.00000206  00000+0 -59058-3 0  9992
2 48222  87.8968 284.8095 0002152 101.4787 258.6584 13.14502893251406
ONEWEB-0219             
1 48223U 21031P   26192.80942627 -.00000053  00000+0 -17627-3 0  9999
2 48223  87.8981 284.7902 0002174  97.0196 263.1181 13.14503748251613
ONEWEB-0202             
1 48224U 21031Q   26192.79042010 -.00000325  00000+0 -91098-3 0  9991
2 48224  87.8984 284.8081 0002806 109.2422 250.9011 13.14498033251599
ONEWEB-0204             
1 48225U 21031R   26192.74837344 -.00000233  00000+0 -66229-3 0  9995
2 48225  87.8973 284.8101 0001864  87.5526 272.5818 13.14499305251483
